IRIDIUM 154             
1 43574U 18061F   26160.69660233  .00000043  00000+0  83157-5 0  9994
2 43574  86.3967  59.9386 0002038  86.9566 273.1863 14.34217785412332
IRIDIUM 163             
1 43575U 18061G   26160.74733371  .00000091  00000+0  25304-4 0  9997
2 43575  86.3966  59.8331 0002312  83.3336 276.8123 14.34215673412313
IRIDIUM 156             
1 43576U 18061H   26160.72197057  .00000212  00000+0  68710-4 0  9994
2 43576  86.3964  59.8500 0002122  80.0233 280.1203 14.34216247412303
IRIDIUM 164             
1 43577U 18061J   26160.70294492  .00000081  00000+0  22037-4 0  9990
2 43577  86.3967  59.8990 0002091  88.4321 271.7114 14.34217463412347
IRIDIUM 159             
1 43578U 18061K   26160.74100015  .00000199  00000+0  64173-4 0  9999
2 43578  86.3966  59.8202 0002330  84.7487 275.3974 14.34216959412311
IRIDIUM 180             
1 43922U 19002A   26160.81026526  .00000029  00000+0  33835-5 0  9994
2 43922  86.3973 356.6824 0002244  88.9299 271.2154 14.34217809387930
IRIDIUM 176             
1 43923U 19002B   26160.81847062  .00000693  00000+0  10598-3 0  9997
2 43923  86.6094 356.6235 0002216  90.8808 269.2663 14.72257163398169
IRIDIUM 168             
1 43924U 19002C   26160.80392345  .00000032  00000+0  42129-5 0  9990
2 43924  86.3975 356.7620 0002184  89.0045 271.1401 14.34217625387911
IRIDIUM 173             
1 43925U 19002D   26160.79123696  .00000058  00000+0  13612-4 0  9992
2 43925  86.3972 356.6564 0002239  86.4307 273.7145 14.34217348387890
IRIDIUM 169             
1 43926U 19002E   26160.39243543  .00000237  00000+0  71085-4 0  9990
2 43926  86.4233  28.4526 0002129  70.4730 289.6698 14.38610903389108
IRIDIUM 172             
1 43927U 19002F   26160.78489303  .00000114  00000+0  33780-4 0  9994
2 43927  86.3973 356.6670 0002278  88.5332 271.6125 14.34218846387906
IRIDIUM 175             
1 43928U 19002G   26160.65119596  .00000310  00000+0  85507-4 0  9997
2 43928  86.4507 293.6716 0001523 209.6312 150.4803 14.43608629397896
IRIDIUM 171             
1 43929U 19002H   26160.55656004  .00000133  00000+0  40383-4 0  9993
2 43929  86.3980 357.0678 0002008  86.8691 273.2734 14.34218921387862
IRIDIUM 170             
1 43930U 19002J   26160.62075133  .00000719  00000+0  11015-3 0  9990
2 43930  86.6092 356.7085 0002360  87.7963 272.3524 14.72257440398143
IRIDIUM 167             
1 43931U 19002K   26160.61998728  .00000025  00000+0  17716-5 0  9990
2 43931  86.3972 356.7581 0001856  86.6560 273.4848 14.34217606387876
IRIDIUM 181             
1 56726U 23068S   26160.68821477  .00000287  00000+0  79291-4 0  9991
2 56726  86.4503  59.9252 0002293  90.6250 269.5214 14.43310663161350
IRIDIUM 177             
1 56727U 23068T   26160.75117285  .00000665  00000+0  84029-4 0  9990
2 56727  86.1963 332.3246 0002412  88.5579 271.5918 14.80215842165264
IRIDIUM 174             
1 56728U 23068U   26160.81229828  .00000716  00000+0  10971-3 0  9996
2 56728  86.6100 356.7751 0002568  85.1680 274.9830 14.72253645164939
IRIDIUM 178             
1 56729U 23068V   26160.67270097  .00000883  00000+0  11274-3 0  9997
2 56729  86.6544  28.5008 0002672  88.8034 271.3494 14.80220826165257
IRIDIUM 179             
1 56730U 23068W   26160.66733079  .00000891  00000+0  11384-3 0  9993
2 56730  86.6786  37.4603 0002397  87.5002 272.6494 14.80237636165253
