OBJECT_NAME,OBJECT_ID,EPOCH,MEAN_MOTION,ECCENTRICITY,INCLINATION,RA_OF_ASC_NODE,ARG_OF_PERICENTER,MEAN_ANOMALY,EPHEMERIS_TYPE,CLASSIFICATION_TYPE,NORAD_CAT_ID,ELEMENT_SET_NO,REV_AT_EPOCH,BSTAR,MEAN_MOTION_DOT,MEAN_MOTION_DDOT
IRIDIUM 154,2018-061F,2026-06-09T16:43:06.441312,14.34217785,.00020387,86.3967,59.9386,86.9566,273.1863,0,U,43574,999,41233,.8315671E-5,.43E-6,0
IRIDIUM 163,2018-061G,2026-06-09T17:56:09.632544,14.34215673,.00023124,86.3966,59.8331,83.3336,276.8123,0,U,43575,999,41231,.2530378E-4,.91E-6,0
IRIDIUM 156,2018-061H,2026-06-09T17:19:38.257248,14.34216247,.00021226,86.3964,59.8500,80.0233,280.1203,0,U,43576,999,41230,.68710275E-4,.212E-5,0
IRIDIUM 164,2018-061J,2026-06-09T16:52:14.441088,14.34217463,.00020911,86.3967,59.8990,88.4321,271.7114,0,U,43577,999,41234,.22037122E-4,.81E-6,0
IRIDIUM 159,2018-061K,2026-06-09T17:47:02.412960,14.34216959,.00023303,86.3966,59.8202,84.7487,275.3974,0,U,43578,999,41231,.64172684E-4,.199E-5,0
IRIDIUM 180,2019-002A,2026-06-09T19:26:46.918464,14.34217809,.00022444,86.3973,356.6824,88.9299,271.2154,0,U,43922,999,38793,.3383452E-5,.29E-6,0
IRIDIUM 176,2019-002B,2026-06-09T19:38:35.861568,14.72257163,.00022164,86.6094,356.6235,90.8808,269.2663,0,U,43923,999,39816,.10597933E-3,.693E-5,0
IRIDIUM 168,2019-002C,2026-06-09T19:17:38.986080,14.34217625,.00021841,86.3975,356.7620,89.0045,271.1401,0,U,43924,999,38791,.4212949E-5,.32E-6,0
IRIDIUM 173,2019-002D,2026-06-09T18:59:22.873344,14.34217348,.00022397,86.3972,356.6564,86.4307,273.7145,0,U,43925,999,38789,.13611852E-4,.58E-6,0
IRIDIUM 169,2019-002E,2026-06-09T09:25:06.421152,14.38610903,.00021297,86.4233,28.4526,70.4730,289.6698,0,U,43926,999,38910,.71085381E-4,.237E-5,0
IRIDIUM 172,2019-002F,2026-06-09T18:50:14.757792,14.34218846,.00022783,86.3973,356.6670,88.5332,271.6125,0,U,43927,999,38790,.33780404E-4,.114E-5,0
IRIDIUM 175,2019-002G,2026-06-09T15:37:43.330944,14.43608629,.00015234,86.4507,293.6716,209.6312,150.4803,0,U,43928,999,39789,.85506909E-4,.31E-5,0
IRIDIUM 171,2019-002H,2026-06-09T13:21:26.787456,14.34218921,.00020088,86.3980,357.0678,86.8691,273.2734,0,U,43929,999,38786,.40382671E-4,.133E-5,0
IRIDIUM 170,2019-002J,2026-06-09T14:53:52.914912,14.72257440,.00023609,86.6092,356.7085,87.7963,272.3524,0,U,43930,999,39814,.11014554E-3,.719E-5,0
IRIDIUM 167,2019-002K,2026-06-09T14:52:46.900992,14.34217606,.00018561,86.3972,356.7581,86.6560,273.4848,0,U,43931,999,38787,.177161E-5,.25E-6,0
IRIDIUM 181,2023-068S,2026-06-09T16:31:01.756128,14.43310663,.00022936,86.4503,59.9252,90.6250,269.5214,0,U,56726,999,16135,.79290847E-4,.287E-5,0
IRIDIUM 177,2023-068T,2026-06-09T18:01:41.334240,14.80215842,.00024129,86.1963,332.3246,88.5579,271.5918,0,U,56727,999,16526,.84029375E-4,.665E-5,0
IRIDIUM 174,2023-068U,2026-06-09T19:29:42.571392,14.72253645,.00025683,86.6100,356.7751,85.1680,274.9830,0,U,56728,999,16493,.10971466E-3,.716E-5,0
IRIDIUM 178,2023-068V,2026-06-09T16:08:41.363808,14.80220826,.00026721,86.6544,28.5008,88.8034,271.3494,0,U,56729,999,16525,.1127397E-3,.883E-5,0
IRIDIUM 179,2023-068W,2026-06-09T16:00:57.380256,14.80237636,.00023977,86.6786,37.4603,87.5002,272.6494,0,U,56730,999,16525,.11384331E-3,.891E-5,0
